CCSDS_OEM_VERS = 2.0  
CREATION_DATE  = 2026-03-24T10:47:04
ORIGINATOR     = ESOC/OPS-GFA                            
 
 



META_START
OBJECT_NAME          = LISA                                    
OBJECT_ID            = -1000                                   
CENTER_NAME          = SUN                     
REF_FRAME            = EME2000 
TIME_SYSTEM          = TCB
START_TIME           = 2036-12-23T00:00:30.346418            
STOP_TIME            = 2047-09-08T23:00:58.800344            
INTERPOLATION        = HERMITE                                 
INTERPOLATION_DEGREE = 7                                       
META_STOP

2037-10-02T06:27:58.509773     1.47974686827909559e+08   -2.29475731260994002e+07   -9.02730394788260199e+06    4.77686540946850080e+00    2.69624239541577637e+01    1.14890685771265098e+01   -5.81698530534366913e-06    9.02191091505419684e-07    3.54911841362811688e-07
2037-10-03T02:40:39.252796     1.48306844621943474e+08   -2.09834469695837498e+07   -8.19044028614434600e+06    4.35310254237278471e+00    2.70252648756293254e+01    1.15136976661188051e+01   -5.83093370024364755e-06    8.25105736187477507e-07    3.22063253642563913e-07
2037-10-03T22:53:19.995817     1.48608133207127005e+08   -1.90149526914500035e+07   -7.35187161772031151e+06    3.92836833970244204e+00    2.70824898642630281e+01    1.15359338440255286e+01   -5.84368416998030947e-06    7.47826559585837055e-07    2.89138156571039902e-07
2037-10-04T19:06:00.738839     1.48878485090794057e+08   -1.70424994087632261e+07   -6.51177224850261584e+06    3.50275008642284869e+00    2.71340853815973908e+01    1.15557717844534142e+01   -5.85523337140723258e-06    6.70369077196620197e-07    2.56143164208283448e-07
2037-10-05T15:18:41.481861     1.49117839161017179e+08   -1.50664971780131403e+07   -5.67031685237884521e+06    3.07633530214504880e+00    2.71800390201105060e+01    1.15732066430710976e+01   -5.86557819916174731e-06    5.92748859723841694e-07    2.23084912949536415e-07
2037-10-06T11:31:22.224882     1.49326140688727826e+08   -1.30873569159823097e+07   -4.82768043757332303e+06    2.64921172359614543e+00    2.72203395071584566e+01    1.15882340591994026e+01   -5.87471579123914202e-06    5.14981530836466596e-07    1.89970060535813857e-07
2037-10-07T07:44:02.967904     1.49503341325601280e+08   -1.11054903210378848e+07   -3.98403831318921596e+06    2.22146728683820349e+00    2.72549767087320625e+01    1.16008501573226166e+01   -5.88264353032446142e-06    4.37082764417197146e-07    1.56805284871097926e-07
2037-10-08T03:56:43.710927     1.49649399103080928e+08   -9.12130979353918880e+06   -3.13956605536899157e+06    1.79319010954285218e+00    2.72839416329952442e+01    1.16110515485067687e+01   -5.88935904093294788e-06    3.59068281309951547e-07    1.23597282648854087e-07
2037-10-09T00:09:24.453948     1.49764278437917143e+08   -7.13522835405409709e+06   -2.29443947249042243e+06    1.36446847362848889e+00    2.73072264335682178e+01    1.16188353317109438e+01   -5.89486018231607274e-06    2.80953845562421416e-07    9.03527677865276405e-08
2037-10-09T20:22:05.196970     1.49847950149595231e+08   -5.14765955807655677e+06   -1.44883456881552190e+06    9.35390808567262866e-01    2.73248244125188293e+01    1.16241990949776479e+01   -5.89914503711503701e-06    2.02755260155179276e-07    5.70784696645077867e-08
2037-10-10T16:34:45.939992     1.49900391495027602e+08   -3.15901740593796596e+06   -6.02927506009906530e+05    5.06045675668841177e-01    2.73367300230252610e+01    1.16271409164882584e+01   -5.90221189587968062e-06    1.24488362242855158e-07    2.37811311798265324e-08
2037-10-11T12:47:26.683013     1.49921586225885034e+08   -1.16971624660503492e+06    2.43105438050355762e+05    7.65217536479747551e-02    2.73429388716733790e+01    1.16276593654695830e+01   -5.90405923728819892e-06    4.61690178758648670e-08   -9.53249339801876913e-09
2037-10-12T09:00:07.426035     1.49911524673941791e+08    8.19829325943328440e+05    1.08908791376676969e+06   -3.53092174217009891e-01    2.73434477203520139e+01    1.16257535029375401e+01   -5.90468570411560412e-06   -3.21868837893335473e-08   -4.28556407659315024e-08
2037-10-13T05:05:25.206634     1.49870549710436285e+08    2.79709466705969814e+06    1.92969564833078953e+06   -7.80091958432774346e-01    2.73383033597361127e+01    1.16214565837562773e+01   -5.90409800022462921e-06   -1.10086177907842730e-07   -7.59786307906975960e-08
2037-10-14T01:10:42.987233     1.49798697674794495e+08    4.77378427344626375e+06    2.76990602816806454e+06   -1.20700557704460243e+00    2.73275252320178019e+01    1.16147643869892008e+01   -5.90230265013176221e-06   -1.87990136252359856e-07   -1.09097646930082107e-07
2037-10-14T21:16:00.767831     1.49695977981381625e+08    6.74949074115557503e+06    3.60954585530015733e+06   -1.63374567989754449e+00    2.73111135670869061e+01    1.16056774412875114e+01   -5.89929924420306493e-06   -2.65883068029705930e-07   -1.42206014926094494e-07
2037-10-15T17:21:18.548430     1.49562406310447961e+08    8.72380669716454670e+06    4.44844197580703907e+06   -2.06022489382578433e+00    2.72890697304893344e+01    1.15941967583339061e+01   -5.89508755960546421e-06   -3.43749257474424420e-07   -1.75297050824168782e-07
2037-10-16T13:26:36.329028     1.49398004654753476e+08    1.06963249039599635e+07    5.28642132453109417e+06   -2.48635583694242790e+00    2.72613962250568669e+01    1.15803238334651013e+01   -5.88966758111915270e-06   -4.21572968670492225e-07   -2.08364063124761563e-07
2037-10-17T09:31:54.109627     1.49202801343384981e+08    1.26666383536122683e+07    6.12331096519828960e+06   -2.91205113428531881e+00    2.72280966922008254e+01    1.15640606461448581e+01   -5.88303951793867887e-06   -4.99338450014929974e-07   -2.41400354762728226e-07
2037-10-18T05:37:11.890226     1.48976831047492385e+08    1.46343403536710143e+07    6.95893812697215099e+06   -3.33722343453305204e+00    2.71891759128958697e+01    1.15454096603000682e+01   -5.87520381647080162e-06   -5.77029938325187184e-07   -2.74399224915298416e-07
2037-10-19T01:42:29.670824     1.48720134772668272e+08    1.65990246071965601e+07    7.79313023844819423e+06   -3.76178542750136113e+00    2.71446398083796510e+01    1.15243738245323009e+01   -5.86616116911593669e-06   -6.54631662589487841e-07   -3.07353970638253260e-07
2037-10-19T21:47:47.451422     1.48432759842695862e+08    1.85602852892426327e+07    8.62571496009647287e+06   -4.18564986213004886e+00    2.70944954405940912e+01    1.15009565722172127e+01   -5.85591251905646016e-06   -7.32127847361368664e-07   -3.40257888330927321e-07
2037-10-20T17:53:05.232021     1.48114759879389375e+08    2.05177171221044064e+07    9.45652021615986526e+06   -4.60872956467057993e+00    2.70387510123941404e+01    1.14751618215042352e+01   -5.84445906101137751e-06   -8.09502715797124222e-07   -3.73104275029307732e-07
2037-10-21T13:58:23.012620     1.47766194783251911e+08    2.24709154516465999e+07    1.02853742270158343e+07   -5.03093745678454418e+00    2.69774158675496949e+01    1.14469939752289225e+01   -5.83180223801589762e-06   -8.86740492336897451e-07   -4.05886429527808841e-07
2037-10-22T10:03:40.793218     1.47387130719675004e+08    2.44194763270264715e+07    1.11121055430092178e+07   -5.45218657326312961e+00    2.69105004905665623e+01    1.14164579207504051e+01   -5.81794373419161098e-06   -9.63825405030274999e-07   -4.38597653329950018e-07
2037-10-23T06:08:58.573816     1.46977640115404665e+08    2.63629965861258321e+07    1.19365430807637144e+07   -5.87239007907774280e+00    2.68380165063521510e+01    1.13835590297263067e+01   -5.80288546342920118e-06   -1.04074168750247452e-06   -4.71231251425864029e-07
2037-10-24T02:14:16.354416     1.46537801669998258e+08    2.83010739490073361e+07    1.27585161629799064e+07   -6.29146128547195804e+00    2.67599766797517660e+01    1.13483031578375613e+01   -5.78662955420393595e-06   -1.11747358056687529e-06   -5.03780532900160071e-07
2037-10-24T22:19:34.135014     1.46067700386997104e+08    3.02333071217092797e+07    1.35778545627270453e+07   -6.70931366480499403e+00    2.66763949149812092e+01    1.13106966444755344e+01   -5.76917833029924882e-06   -1.19400533348334188e-06   -5.36238811368837762e-07
2037-10-25T18:24:51.915612     1.45567427629539043e+08    3.21592959126931541e+07    1.43943885532368440e+07   -7.12586086385676332e+00    2.65872862549815245e+01    1.12707463124038334e+01   -5.75053428742090318e-06   -1.27032120485055828e-06   -5.68599405240109285e-07
2037-10-26T14:28:41.141005     1.45037748727160752e+08    3.40762951531993896e+07    1.52069545615910981e+07   -7.54050924915150844e+00    2.64927861061054735e+01    1.12285126737397967e+01   -5.73072565663292921e-06   -1.34631249160947602e-06   -6.00816228786155238e-07
2037-10-27T10:32:30.366397     1.44478172808785290e+08    3.59862707125547975e+07    1.60163861257963739e+07   -7.95368409861811987e+00    2.63928059801514436e+01    1.11839559982005401e+01   -5.70973319070124170e-06   -1.42205710688478600e-06   -6.32922318761931835e-07
2037-10-28T06:36:19.591790     1.43888809412093967e+08    3.78888274543275535e+07    1.68225157583567426e+07   -8.36530002718698640e+00    2.62873642569182238e+01    1.11370845227597766e+01   -5.68756031023741465e-06   -1.49753946520514033e-06   -6.64911064293184028e-07
2037-10-29T02:40:08.817182     1.43269774188824534e+08    3.97835715730368346e+07    1.76251765679065771e+07   -8.77527190379445798e+00    2.61764804415323802e+01    1.10879069616871320e+01   -5.66421063154766444e-06   -1.57274399380797014e-06   -6.96775860835182679e-07
2037-10-29T22:43:58.042575     1.42621188924747914e+08    4.16701107069843784e+07    1.84242023072910570e+07   -9.18351486622954738e+00    2.60601751631859280e+01    1.10364325059414838e+01   -5.63968798559986907e-06   -1.64765514196058589e-06   -7.28510114216768377e-07
